STARLETTE               
1 07646U 75010A   23297.60314966 -.00000126  00000+0  15132-4 0  9999
2 07646  49.8239 319.8101 0205635 109.9436 252.3734 13.82321735460838
LAGEOS 1                
1 08820U 76039A   23297.50225131 -.00000017  00000+0  00000+0 0  9992
2 08820 109.8162 208.1989 0044739 149.8119 358.9432  6.38664814851402
AJISAI (EGS)            
1 16908U 86061A   23297.57694684 -.00000098  00000+0 -71652-5 0  9991
2 16908  50.0087 239.6669 0011200 240.1587 279.5614 12.44502424360021
COSMOS 1989 (ETALON 1)  
1 19751U 89001C   23297.06356689  .00000093  00000+0  00000+0 0  9997
2 19751  64.4570 105.3977 0023986 214.8170 298.0255  2.13156124270751
COSMOS 2024 (ETALON 2)  
1 20026U 89039C   23297.56996646 -.00000042  00000+0  00000+0 0  9998
2 20026  65.4284 343.6197 0019133 218.0940 315.8814  2.13204239267893
LAGEOS 2                
1 22195U 92070B   23297.62268698 -.00000009  00000+0  00000+0 0  9995
2 22195  52.6386 157.4963 0138525 124.3088  78.6018  6.47294175732845
STELLA                  
1 22824U 93061B   23297.60551333 -.00000024  00000+0  90779-5 0  9999
2 22824  98.9152 334.7652 0006758 156.0370  17.1239 14.27411664566873
LARETS                  
1 27944U 03042F   23297.61363112  .00000158  00000+0  40068-4 0  9996
2 27944  98.2820  71.4194 0012514 169.9993 190.1460 14.63404927 71977
LARES                   
1 38077U 12006A   23296.94514111 -.00000029  00000+0  61392-4 0  9998
2 38077  69.4886 144.3825 0011151 242.3951 117.5944 12.54931511535714
LARES-2                 
1 53105U 22080A   23297.35997183  .00000008  00000+0  00000+0 0  9990
2 53105  70.1451 276.9180 0005300 189.5767 170.4693  6.38965177 29898
